NORAD_CAT_ID,OBJECT_NAME,OBJECT_TYPE,EPOCH,MEAN_MOTION,ECCENTRICITY,INCLINATION,RA_OF_ASC_NODE,ARG_OF_PERICENTER,MEAN_ANOMALY,BSTAR,MEAN_MOTION_DOT,MEAN_MOTION_DDOT,TLE_LINE0,TLE_LINE1,TLE_LINE2,SEMIMAJOR_AXIS,PERIOD,APOGEE,PERIGEE,DECAYED
53537.0,STARLINK-4120,PAYLOAD,2023-04-14 11:50:05,15.08839581,0.0001424,53.2149,153.5261,103.9406,256.1744,0.00012406,1.687e-05,0.0,0 STARLINK-4120,1 53537U 22101L   23104.49311642  .00001687  00000-0  12406-3 0  9997,2 53537  53.2149 153.5261 0001424 103.9406 256.1744 15.08839581 36114,6917.882,95.438,540.732,538.762,0.0
53537.0,STARLINK-4120,PAYLOAD,2023-04-15 10:05:29,15.08835255,0.0001484,53.2157,149.3643,94.3724,265.7438,5.839e-05,6.41e-06,0.0,0 STARLINK-4120,1 53537U 22101L   23105.42048409  .00000641  00000-0  58390-4 0  9991,2 53537  53.2157 149.3643 0001484  94.3724 265.7438 15.08835255 36257,6917.895,95.438,540.787,538.733,0.0
53537.0,STARLINK-4120,PAYLOAD,2023-04-15 19:37:48,15.08839606,0.0001405,53.2158,147.5802,90.6882,269.4271,3.1812e-05,2.18e-06,0.0,0 STARLINK-4120,1 53537U 22101L   23105.81792225  .00000218  00000-0  31812-4 0  9996,2 53537  53.2158 147.5802 0001405  90.6882 269.4271 15.08839606 36319,6917.882,95.438,540.719,538.775,0.0
53537.0,STARLINK-4120,PAYLOAD,2023-04-16 09:56:16,15.08842589,0.0001306,53.216,144.9042,86.5469,273.5673,9.55e-05,1.232e-05,0.0,0 STARLINK-4120,1 53537U 22101L   23106.41408033  .00001232  00000-0  95500-4 0  9995,2 53537  53.2160 144.9042 0001306  86.5469 273.5673 15.08842589 36400,6917.872,95.437,540.641,538.834,0.0
53537.0,STARLINK-4120,PAYLOAD,2023-04-16 19:28:35,15.08843686,0.000142,53.216,143.1203,84.5804,275.535,9.9477e-06,-1.3e-06,0.0,0 STARLINK-4120,1 53537U 22101L   23106.81152173 -.00000130  00000-0  99477-5 0  9995,2 53537  53.2160 143.1203 0001420  84.5804 275.5350 15.08843686 36467,6917.869,95.437,540.716,538.752,0.0
53537.0,STARLINK-4120,PAYLOAD,2023-04-17 09:47:04,15.08835491,0.0001449,53.2163,140.4437,85.3783,274.7375,4.6316e-05,4.49e-06,0.0,0 STARLINK-4120,1 53537U 22101L   23107.40768801  .00000449  00000-0  46316-4 0  9997,2 53537  53.2163 140.4437 0001449  85.3783 274.7375 15.08835491 36558,6917.894,95.438,540.762,538.757,0.0
53537.0,STARLINK-4120,PAYLOAD,2023-04-17 19:19:23,15.08836544,0.0001457,53.2158,138.6589,80.8109,279.3047,4.3216e-05,4e-06,0.0,0 STARLINK-4120,1 53537U 22101L   23107.80512847  .00000400  00000-0  43216-4 0  9991,2 53537  53.2158 138.6589 0001457  80.8109 279.3047 15.08836544 36614,6917.891,95.438,540.764,538.748,0.0
53537.0,STARLINK-4120,PAYLOAD,2023-04-18 08:02:27,15.08841355,0.0001382,53.2155,136.2796,80.824,279.2909,3.2154e-05,2.24e-06,0.0,0 STARLINK-4120,1 53537U 22101L   23108.33504612  .00000224  00000-0  32154-4 0  9994,2 53537  53.2155 136.2796 0001382  80.8240 279.2909 15.08841355 36698,6917.876,95.437,540.697,538.785,0.0
53537.0,STARLINK-4120,PAYLOAD,2023-04-18 19:10:09,15.08841662,0.0001432,53.2159,134.1985,79.4144,280.7009,6.7534e-05,7.87e-06,0.0,0 STARLINK-4120,1 53537U 22101L   23108.79872486  .00000787  00000-0  67534-4 0  9995,2 53537  53.2159 134.1985 0001432  79.4144 280.7009 15.08841662 36769,6917.875,95.437,540.731,538.75,0.0
53537.0,STARLINK-4120,PAYLOAD,2023-04-19 07:53:14,15.08841875,0.0001424,53.216,131.8201,77.2781,282.837,0.00010824,1.435e-05,0.0,0 STARLINK-4120,1 53537U 22101L   23109.32864400  .00001435  00000-0  10824-3 0  9992,2 53537  53.2160 131.8201 0001424  77.2781 282.8370 15.08841875 36849,6917.875,95.437,540.725,538.755,0.0
53537.0,STARLINK-4120,PAYLOAD,2023-04-19 19:00:56,15.0884617,0.0001472,53.2164,129.739,76.1175,283.998,0.00012449,1.694e-05,0.0,0 STARLINK-4120,1 53537U 22101L   23109.79232028  .00001694  00000-0  12449-3 0  9990,2 53537  53.2164 129.7390 0001472  76.1175 283.9980 15.08846170 36916,6917.862,95.437,540.745,538.708,0.0
53537.0,STARLINK-4120,PAYLOAD,2023-04-20 01:22:23,15.08910194,0.0001221,53.2165,128.549,57.7645,302.3466,0.00063494,9.851e-05,0.0,0 STARLINK-4120,1 53537U 22101L   23110.05721949  .00009851  00000-0  63494-3 0  9995,2 53537  53.2165 128.5490 0001221  57.7645 302.3466 15.08910194 36951,6917.666,95.433,540.375,538.686,0.0
53537.0,STARLINK-4120,PAYLOAD,2023-04-20 14:04:56,15.09263888,0.0001124,53.2148,126.1665,111.0402,249.0711,0.0033509,0.00054077,0.0,0 STARLINK-4120,1 53537U 22101L   23110.58677043  .00054077  00000-0  33509-2 0  9991,2 53537  53.2148 126.1665 0001124 111.0402 249.0711 15.09263888 37039,6916.585,95.411,539.227,537.673,0.0
53537.0,STARLINK-4120,PAYLOAD,2023-04-21 12:19:12,15.09800277,0.0001203,53.2146,121.9982,71.4476,288.6647,0.0065858,0.00108986,0.0,0 STARLINK-4120,1 53537U 22101L   23111.51333586  .00108986  00000-0  65858-2 0  9997,2 53537  53.2146 121.9982 0001203  71.4476 288.6647 15.09800277 37171,6914.947,95.377,537.644,535.98,0.0
53537.0,STARLINK-4120,PAYLOAD,2023-04-22 00:00:02,15.10529529,0.0001538,53.2144,119.8094,91.8216,34.7433,-0.0086662,-0.0014195,0.0,0 STARLINK-4120,1 53537U 22101L   23112.00002315 -.00141950  00000-0 -86662-2 0  9991,2 53537  53.2144 119.8094 0001538  91.8216  34.7433 15.10529529  1307,6912.721,95.331,535.649,533.523,0.0
53537.0,STARLINK-4120,PAYLOAD,2023-04-22 06:00:00,15.1052894,0.0001521,53.2144,118.6858,84.7634,321.9217,-0.030623,-0.00482647,0.0,0 STARLINK-4120,1 53537U 22101L   23112.25001157 -.00482647  00000-0 -30623-1 0  9997,2 53537  53.2144 118.6858 0001521  84.7634 321.9217 15.10528940 37282,6912.723,95.331,535.639,533.536,0.0
53537.0,STARLINK-4120,PAYLOAD,2023-04-22 14:00:01,15.10220315,0.0001497,53.2142,117.1859,81.8395,338.258,-0.032659,-0.00508766,0.0,0 STARLINK-4120,1 53537U 22101L   23112.58334491 -.00508766  00000-0 -32659-1 0  9995,2 53537  53.2142 117.1859 0001497  81.8395 338.2580 15.10220315  1302,6913.665,95.35,536.565,534.495,0.0
53537.0,STARLINK-4120,PAYLOAD,2023-04-23 00:00:00,15.09799981,0.0001586,53.2147,115.3107,95.4682,70.8542,-0.030779,-0.00475805,0.0,0 STARLINK-4120,1 53537U 22101L   23113.00001157 -.00475805  00000-0 -30779-1 0  9991,2 53537  53.2147 115.3107 0001586  95.4682  70.8542 15.09799981  1307,6914.948,95.377,537.909,535.716,0.0
53537.0,STARLINK-4120,PAYLOAD,2023-04-23 13:34:29,15.09728198,0.0001536,53.215,112.7728,86.6344,273.4824,-0.0042178,-0.00068421,0.0,0 STARLINK-4120,1 53537U 22101L   23113.56562287 -.00068421  00000-0 -42178-2 0  9997,2 53537  53.2150 112.7728 0001536  86.6344 273.4824 15.09728198 37487,6915.167,95.381,538.094,535.97,0.0
53537.0,STARLINK-4120,PAYLOAD,2023-04-23 22:00:00,15.08819499,0.0001748,53.2143,111.1923,94.3374,15.54,0.0020585,0.00032607,0.0,0 STARLINK-4120,1 53537U 22101L   23113.91667824  .00032607  00000-0  20585-2 0  9992,2 53537  53.2143 111.1923 0001748  94.3374  15.5400 15.08819499  1304,6917.943,95.439,541.017,538.599,0.0
53537.0,STARLINK-4120,PAYLOAD,2023-04-24 11:49:21,15.09255591,0.0001817,53.2151,108.6084,82.9981,277.1218,-0.0091927,-0.00145302,0.0,0 STARLINK-4120,1 53537U 22101L   23114.49260896 -.00145302  00000-0 -91927-2 0  9991,2 53537  53.2151 108.6084 0001817  82.9981 277.1218 15.09255591 37621,6916.61,95.411,539.732,537.219,0.0
53537.0,STARLINK-4120,PAYLOAD,2023-04-24 15:00:16,15.09371266,0.0001849,53.2147,108.0104,108.9681,251.1512,-0.0066293,-0.00105778,0.0,0 STARLINK-4120,1 53537U 22101L   23114.62518710 -.00105778  00000-0 -66293-2 0  9998,2 53537  53.2147 108.0104 0001849 108.9681 251.1512 15.09371266 37643,6916.257,95.404,539.401,536.843,0.0
53537.0,STARLINK-4120,PAYLOAD,2023-04-25 06:00:00,15.08871975,0.0001668,53.2142,105.2088,86.2911,69.9202,-0.0046465,-0.00073547,0.0,0 STARLINK-4120,1 53537U 22101L   23115.25001157 -.00073547  00000-0 -46465-2 0  9997,2 53537  53.2142 105.2088 0001668  86.2911  69.9202 15.08871975 37733,6917.783,95.436,540.802,538.494,0.0
53537.0,STARLINK-4120,PAYLOAD,2023-04-25 14:00:01,15.08851479,0.0001714,53.2141,103.7119,82.901,84.9378,-0.0012088,-0.00019481,0.0,0 STARLINK-4120,1 53537U 22101L   23115.58335648 -.00019481  00000-0 -12088-2 0  9999,2 53537  53.2141 103.7119 0001714  82.9010  84.9378 15.08851479  1307,6917.845,95.437,540.896,538.525,0.0
53537.0,STARLINK-4120,PAYLOAD,2023-04-25 22:00:00,15.08834497,0.0001754,53.2143,102.2144,90.8657,88.5122,0.0023659,0.00037561,0.0,0 STARLINK-4120,1 53537U 22101L   23115.91667824  .00037561  00000-0  23659-2 0  9993,2 53537  53.2143 102.2144 0001754  90.8657  88.5122 15.08834497 37835,6917.897,95.438,540.976,538.549,0.0
53537.0,STARLINK-4120,PAYLOAD,2023-04-26 14:00:01,15.08860966,0.0001731,53.2144,99.2227,84.1956,118.3692,-0.001574,-0.00025266,0.0,0 STARLINK-4120,1 53537U 22101L   23116.58334491 -.00025266  00000-0 -15740-2 0  9991,2 53537  53.2144  99.2227 0001731  84.1956 118.3692 15.08860966  1303,6917.816,95.436,540.879,538.484,0.0
53537.0,STARLINK-4120,PAYLOAD,2023-04-27 00:00:00,15.08871761,0.0001808,53.2148,97.3513,92.6527,214.425,-0.00019462,-3.387e-05,0.0,0 STARLINK-4120,1 53537U 22101L   23117.00001157 -.00003387  00000-0 -19462-3 0  9995,2 53537  53.2148  97.3513 0001808  92.6527 214.4250 15.08871761  1300,6917.783,95.436,540.899,538.398,0.0
53537.0,STARLINK-4120,PAYLOAD,2023-04-27 09:46:22,15.08852903,0.0001754,53.2162,95.5228,88.3686,271.7507,0.00022809,3.345e-05,0.0,0 STARLINK-4120,1 53537U 22101L   23117.40719912  .00003345  00000-0  22809-3 0  9995,2 53537  53.2162  95.5228 0001754  88.3686 271.7507 15.08852903 38068,6917.841,95.437,540.919,538.493,0.0
53537.0,STARLINK-4120,PAYLOAD,2023-04-28 04:51:00,15.08847759,0.0001718,53.2158,91.9549,93.4633,266.6556,5.0895e-05,5.22e-06,0.0,0 STARLINK-4120,1 53537U 22101L   23118.20208540  .00000522  00000-0  50895-4 0  9995,2 53537  53.2158  91.9549 0001718  93.4633 266.6556 15.08847759 38181,6917.857,95.437,540.91,538.533,0.0
53537.0,STARLINK-4120,PAYLOAD,2023-04-28 09:37:09,15.08850847,0.0001758,53.2161,91.0626,94.0364,266.0829,7.6663e-05,9.33e-06,0.0,0 STARLINK-4120,1 53537U 22101L   23118.40080201  .00000933  00000-0  76663-4 0  9996,2 53537  53.2161  91.0626 0001758  94.0364 266.0829 15.08850847 38217,6917.847,95.437,540.928,538.496,0.0
